start=new Date('2023-01-23T00:00:00.000Z').valueOf();
sats=[{"FILE":"3758156","MEAN_ANOMALY":"279.6609","ECCENTRICITY":"0.00016110","GP_ID":"223599423","MEAN_MOTION":"15.01264401","ELEMENT_SET_NO":"999","ARG_OF_PERICENTER":"80.4797","BSTAR":"-0.00003886400000","LAUNCH_DATE":"2022-08-31","REF_FRAME":"TEME","CLASSIFICATION_TYPE":"U","NORAD_CAT_ID":"53678","MEAN_MOTION_DDOT":"0.0000000000000","CENTER_NAME":"EARTH","INCLINATION":"97.6558","SEMIMAJOR_AXIS":"6941.133","TLE_LINE2":"2 53678  97.6558 265.7877 0001611  80.4797 279.6609 15.01264401 22172","EPOCH":"2023-01-22T15:26:47.605920","MEAN_ELEMENT_THEORY":"SGP4","RCS_SIZE":"LARGE","RA_OF_ASC_NODE":"265.7877","PERIOD":"95.919","COUNTRY_CODE":"US","REV_AT_EPOCH":"2217","OBJECT_ID":"2022-105AG","PERIAPSIS":"561.880","EPHEMERIS_TYPE":"0","APOAPSIS":"564.116","SITE":"AFWTR","MEAN_MOTION_DOT":"-0.00000558","DECAY_DATE":null,"TIME_SYSTEM":"UTC","OBJECT_TYPE":"PAYLOAD","OBJECT_NAME":"STARLINK-4418","TLE_LINE1":"1 53678U 22105AG  23022.64360655 -.00000558  00000-0 -38864-4 0  9996"},{"RCS_SIZE":"LARGE","PERIAPSIS":"562.036","REV_AT_EPOCH":"2217","OBJECT_ID":"2022-105AH","COUNTRY_CODE":"US","RA_OF_ASC_NODE":"265.7913","PERIOD":"95.919","OBJECT_TYPE":"PAYLOAD","TIME_SYSTEM":"UTC","DECAY_DATE":null,"APOAPSIS":"563.966","EPHEMERIS_TYPE":"0","SITE":"AFWTR","MEAN_MOTION_DOT":"0.00004589","OBJECT_NAME":"STARLINK-4632","TLE_LINE1":"1 53679U 22105AH  23022.64731188  .00004589  00000-0  36164-3 0  9996","FILE":"3758156","ELEMENT_SET_NO":"999","MEAN_ANOMALY":"251.7719","ECCENTRICITY":"0.00013900","GP_ID":"223599777","MEAN_MOTION":"15.01263615","NORAD_CAT_ID":"53679","CLASSIFICATION_TYPE":"U","REF_FRAME":"TEME","ARG_OF_PERICENTER":"108.3656","BSTAR":"0.00036164000000","LAUNCH_DATE":"2022-08-31","INCLINATION":"97.6558","TLE_LINE2":"2 53679  97.6558 265.7913 0001390 108.3656 251.7719 15.01263615 22171","SEMIMAJOR_AXIS":"6941.136","MEAN_ELEMENT_THEORY":"SGP4","EPOCH":"2023-01-22T15:32:07.746432","CENTER_NAME":"EARTH","MEAN_MOTION_DDOT":"0.0000000000000"},{"TLE_LINE1":"1 53680U 22105AJ  23022.63990409  .00006968  00000-0  54642-3 0  9994","OBJECT_NAME":"STARLINK-4630","MEAN_MOTION_DOT":"0.00006968","SITE":"AFWTR","EPHEMERIS_TYPE":"0","APOAPSIS":"564.054","OBJECT_TYPE":"PAYLOAD","TIME_SYSTEM":"UTC","DECAY_DATE":null,"COUNTRY_CODE":"US","RA_OF_ASC_NODE":"265.7843","PERIOD":"95.919","PERIAPSIS":"561.927","OBJECT_ID":"2022-105AJ","REV_AT_EPOCH":"2217","RCS_SIZE":"LARGE","CENTER_NAME":"EARTH","MEAN_MOTION_DDOT":"0.0000000000000","TLE_LINE2":"2 53680  97.6558 265.7843 0001532 106.6212 253.5180 15.01267018 22175","EPOCH":"2023-01-22T15:21:27.713376","SEMIMAJOR_AXIS":"6941.125","MEAN_ELEMENT_THEORY":"SGP4","INCLINATION":"97.6558","REF_FRAME":"TEME","LAUNCH_DATE":"2022-08-31","ARG_OF_PERICENTER":"106.6212","BSTAR":"0.00054642000000","CLASSIFICATION_TYPE":"U","NORAD_CAT_ID":"53680","ELEMENT_SET_NO":"999","GP_ID":"223599435","ECCENTRICITY":"0.00015320","MEAN_MOTION":"15.01267018","MEAN_ANOMALY":"253.5180","FILE":"3758156"},{"COUNTRY_CODE":"US","PERIOD":"95.919","RA_OF_ASC_NODE":"265.7858","PERIAPSIS":"561.803","REV_AT_EPOCH":"2217","OBJECT_ID":"2022-105AK","RCS_SIZE":"LARGE","OBJECT_NAME":"STARLINK-4424","TLE_LINE1":"1 53681U 22105AK  23022.64383772  .00002997  00000-0  23778-3 0  9999","APOAPSIS":"564.150","EPHEMERIS_TYPE":"0","SITE":"AFWTR","MEAN_MOTION_DOT":"0.00002997","OBJECT_TYPE":"PAYLOAD","TIME_SYSTEM":"UTC","DECAY_DATE":null,"ELEMENT_SET_NO":"999","MEAN_ANOMALY":"296.3033","MEAN_MOTION":"15.01271504","GP_ID":"223599426","ECCENTRICITY":"0.00016910","FILE":"3758156","CENTER_NAME":"EARTH","MEAN_MOTION_DDOT":"0.0000000000000","INCLINATION":"97.6540","TLE_LINE2":"2 53681  97.6540 265.7858 0001691  63.8365 296.3033 15.01271504 22179","EPOCH":"2023-01-22T15:27:07.579008","SEMIMAJOR_AXIS":"6941.111","MEAN_ELEMENT_THEORY":"SGP4","REF_FRAME":"TEME","ARG_OF_PERICENTER":"63.8365","BSTAR":"0.00023778000000","LAUNCH_DATE":"2022-08-31","NORAD_CAT_ID":"53681","CLASSIFICATION_TYPE":"U"},{"GP_ID":"223593181","ECCENTRICITY":"0.00016030","MEAN_MOTION":"15.01260697","MEAN_ANOMALY":"255.5356","ELEMENT_SET_NO":"999","FILE":"3757860","TLE_LINE2":"2 53682  97.6553 265.3871 0001603 104.6046 255.5356 15.01260697 22118","EPOCH":"2023-01-22T05:40:35.915520","SEMIMAJOR_AXIS":"6941.145","MEAN_ELEMENT_THEORY":"SGP4","INCLINATION":"97.6553","MEAN_MOTION_DDOT":"0.0000000000000","CENTER_NAME":"EARTH","CLASSIFICATION_TYPE":"U","NORAD_CAT_ID":"53682","LAUNCH_DATE":"2022-08-31","BSTAR":"0.00001679800000","ARG_OF_PERICENTER":"104.6046","REF_FRAME":"TEME","OBJECT_ID":"2022-105AL","REV_AT_EPOCH":"2211","PERIAPSIS":"561.897","PERIOD":"95.919","RA_OF_ASC_NODE":"265.3871","COUNTRY_CODE":"US","RCS_SIZE":"LARGE","TLE_LINE1":"1 53682U 22105AL  23022.23652680  .00000157  00000-0  16798-4 0  9993","OBJECT_NAME":"STARLINK-4438","DECAY_DATE":null,"TIME_SYSTEM":"UTC","OBJECT_TYPE":"PAYLOAD","MEAN_MOTION_DOT":"0.00000157","SITE":"AFWTR","EPHEMERIS_TYPE":"0","APOAPSIS":"564.122"},{"SEMIMAJOR_AXIS":"6941.131","TLE_LINE2":"2 53683  97.6545 265.3945 0001445 101.8985 258.2401 15.01265269 22118","EPOCH":"2023-01-22T05:48:15.071040","MEAN_ELEMENT_THEORY":"SGP4","INCLINATION":"97.6545","MEAN_MOTION_DDOT":"0.0000000000000","CENTER_NAME":"EARTH","CLASSIFICATION_TYPE":"U","NORAD_CAT_ID":"53683","LAUNCH_DATE":"2022-08-31","ARG_OF_PERICENTER":"101.8985","BSTAR":"0.00061305000000","REF_FRAME":"TEME","ECCENTRICITY":"0.00014450","GP_ID":"223592960","MEAN_MOTION":"15.01265269","MEAN_ANOMALY":"258.2401","ELEMENT_SET_NO":"999","FILE":"3757853","TLE_LINE1":"1 53683U 22105AM  23022.24184110  .00007825  00000-0  61305-3 0  9995","OBJECT_NAME":"STARLINK-4625","DECAY_DATE":null,"OBJECT_TYPE":"PAYLOAD","TIME_SYSTEM":"UTC","SITE":"AFWTR","MEAN_MOTION_DOT":"0.00007825","EPHEMERIS_TYPE":"0","APOAPSIS":"563.999","OBJECT_ID":"2022-105AM","REV_AT_EPOCH":"2211","PERIAPSIS":"561.993","RA_OF_ASC_NODE":"265.3945","PERIOD":"95.919","COUNTRY_CODE":"US","RCS_SIZE":"LARGE"},{"FILE":"3757854","MEAN_ANOMALY":"271.2198","ECCENTRICITY":"0.00019510","GP_ID":"223592976","MEAN_MOTION":"15.01296255","ELEMENT_SET_NO":"999","BSTAR":"0.00225570000000","ARG_OF_PERICENTER":"88.9249","LAUNCH_DATE":"2022-08-31","REF_FRAME":"TEME","CLASSIFICATION_TYPE":"U","NORAD_CAT_ID":"53684","MEAN_MOTION_DDOT":"0.0000000000000","CENTER_NAME":"EARTH","INCLINATION":"97.6568","MEAN_ELEMENT_THEORY":"SGP4","TLE_LINE2":"2 53684  97.6568 265.5838 0001951  88.9249 271.2198 15.01296255 22136","SEMIMAJOR_AXIS":"6941.035","EPOCH":"2023-01-22T10:07:14.295072","RCS_SIZE":"LARGE","PERIOD":"95.917","RA_OF_ASC_NODE":"265.5838","COUNTRY_CODE":"US","REV_AT_EPOCH":"2213","OBJECT_ID":"2022-105AN","PERIAPSIS":"561.546","EPHEMERIS_TYPE":"0","APOAPSIS":"564.254","SITE":"AFWTR","MEAN_MOTION_DOT":"0.00029061","DECAY_DATE":null,"TIME_SYSTEM":"UTC","OBJECT_TYPE":"PAYLOAD","OBJECT_NAME":"STARLINK-4624","TLE_LINE1":"1 53684U 22105AN  23022.42169323  .00029061  00000-0  22557-2 0  9996"},{"ELEMENT_SET_NO":"999","ECCENTRICITY":"0.00013260","GP_ID":"223579547","MEAN_MOTION":"15.01262805","MEAN_ANOMALY":"276.2257","FILE":"3757229","TLE_LINE2":"2 53685  97.6553 264.7973 0001326  83.9119 276.2257 15.01262805 22022","SEMIMAJOR_AXIS":"6941.138","MEAN_ELEMENT_THEORY":"SGP4","EPOCH":"2023-01-21T15:19:06.441600","INCLINATION":"97.6553","CENTER_NAME":"EARTH","MEAN_MOTION_DDOT":"0.0000000000000","NORAD_CAT_ID":"53685","CLASSIFICATION_TYPE":"U","REF_FRAME":"TEME","LAUNCH_DATE":"2022-08-31","ARG_OF_PERICENTER":"83.9119","BSTAR":"0.00014828000000","PERIAPSIS":"562.083","OBJECT_ID":"2022-105AP","REV_AT_EPOCH":"2202","COUNTRY_CODE":"US","RA_OF_ASC_NODE":"264.7973","PERIOD":"95.919","RCS_SIZE":"LARGE","TLE_LINE1":"1 53685U 22105AP  23021.63826900  .00001846  00000-0  14828-3 0  9994","OBJECT_NAME":"STARLINK-4626","TIME_SYSTEM":"UTC","OBJECT_TYPE":"PAYLOAD","DECAY_DATE":null,"MEAN_MOTION_DOT":"0.00001846","SITE":"AFWTR","APOAPSIS":"563.924","EPHEMERIS_TYPE":"0"},{"MEAN_MOTION_DOT":"0.00004102","SITE":"AFWTR","EPHEMERIS_TYPE":"0","APOAPSIS":"564.045","DECAY_DATE":null,"OBJECT_TYPE":"PAYLOAD","TIME_SYSTEM":"UTC","TLE_LINE1":"1 53686U 22105AQ  23022.23443582  .00004102  00000-0  32374-3 0  9997","OBJECT_NAME":"STARLINK-4467","RCS_SIZE":"LARGE","PERIOD":"95.919","RA_OF_ASC_NODE":"265.3840","COUNTRY_CODE":"US","OBJECT_ID":"2022-105AQ","REV_AT_EPOCH":"2211","PERIAPSIS":"561.959","LAUNCH_DATE":"2022-08-31","BSTAR":"0.00032374000000","ARG_OF_PERICENTER":"96.6372","REF_FRAME":"TEME","NORAD_CAT_ID":"53686","CLASSIFICATION_TYPE":"U","MEAN_MOTION_DDOT":"0.0000000000000","CENTER_NAME":"EARTH","EPOCH":"2023-01-22T05:37:35.254848","TLE_LINE2":"2 53686  97.6561 265.3840 0001503  96.6372 263.5024 15.01263250 22117","SEMIMAJOR_AXIS":"6941.137","MEAN_ELEMENT_THEORY":"SGP4","INCLINATION":"97.6561","FILE":"3757855","GP_ID":"223592982","MEAN_MOTION":"15.01263250","ECCENTRICITY":"0.00015030","MEAN_ANOMALY":"263.5024","ELEMENT_SET_NO":"999"},{"EPOCH":"2023-01-22T15:16:07.845888","TLE_LINE2":"2 53687  97.6551 265.7805 0001396  92.2221 267.9163 15.01260811 22175","SEMIMAJOR_AXIS":"6941.144","MEAN_ELEMENT_THEORY":"SGP4","INCLINATION":"97.6551","CENTER_NAME":"EARTH","MEAN_MOTION_DDOT":"0.0000000000000","NORAD_CAT_ID":"53687","CLASSIFICATION_TYPE":"U","REF_FRAME":"TEME","LAUNCH_DATE":"2022-08-31","ARG_OF_PERICENTER":"92.2221","BSTAR":"0.00005877300000","ELEMENT_SET_NO":"999","ECCENTRICITY":"0.00013960","GP_ID":"223599444","MEAN_MOTION":"15.01260811","MEAN_ANOMALY":"267.9163","FILE":"3758157","TLE_LINE1":"1 53687U 22105AR  23022.63620192  .00000696  00000-0  58773-4 0  9992","OBJECT_NAME":"STARLINK-4569","TIME_SYSTEM":"UTC","OBJECT_TYPE":"PAYLOAD","DECAY_DATE":null,"MEAN_MOTION_DOT":"0.00000696","SITE":"AFWTR","EPHEMERIS_TYPE":"0","APOAPSIS":"563.978","PERIAPSIS":"562.040","OBJECT_ID":"2022-105AR","REV_AT_EPOCH":"2217","COUNTRY_CODE":"US","RA_OF_ASC_NODE":"265.7805","PERIOD":"95.919","RCS_SIZE":"LARGE"}];
